start=new Date('2021-10-14T00:00:00.000Z').valueOf();
sats=[{"DECAY_DATE":null,"OBJECT_ID":"2021-036K","SEMIMAJOR_AXIS":"6925.327","ARG_OF_PERICENTER":"100.5283","CENTER_NAME":"EARTH","MEAN_ELEMENT_THEORY":"SGP4","ELEMENT_SET_NO":"999","MEAN_MOTION":"15.06406899","LAUNCH_DATE":"2021-04-29","TLE_LINE1":"1 48285U 21036K   21286.74018183  .00001731  00000-0  13506-3 0  9990","MEAN_ANOMALY":"259.5894","APOAPSIS":"548.354","REF_FRAME":"TEME","OBJECT_TYPE":"PAYLOAD","RA_OF_ASC_NODE":"99.9967","MEAN_MOTION_DDOT":"0.0000000000000","BSTAR":"0.00013506000000","MEAN_MOTION_DOT":"0.00001731","EPOCH":"2021-10-13T17:45:51.710112","TLE_LINE2":"2 48285  53.0487  99.9967 0001677 100.5283 259.5894 15.06406899 25956","SITE":"AFETR","GP_ID":"187101554","INCLINATION":"53.0487","EPHEMERIS_TYPE":"0","REV_AT_EPOCH":"2595","OBJECT_NAME":"STARLINK-2548","TIME_SYSTEM":"UTC","ECCENTRICITY":"0.00016770","PERIAPSIS":"546.031","PERIOD":"95.592","CLASSIFICATION_TYPE":"U","RCS_SIZE":"LARGE","NORAD_CAT_ID":"48285","FILE":"3161149","COUNTRY_CODE":"US"},{"TLE_LINE2":"2 48286  53.0558 100.2866 0001945  93.2012 266.9200 15.06390728 25941","SITE":"AFETR","GP_ID":"187101801","INCLINATION":"53.0558","EPHEMERIS_TYPE":"0","REV_AT_EPOCH":"2594","TIME_SYSTEM":"UTC","OBJECT_NAME":"STARLINK-2547","PERIAPSIS":"545.895","ECCENTRICITY":"0.00019450","PERIOD":"95.593","CLASSIFICATION_TYPE":"U","RCS_SIZE":"LARGE","NORAD_CAT_ID":"48286","FILE":"3161149","COUNTRY_CODE":"US","DECAY_DATE":null,"OBJECT_ID":"2021-036L","SEMIMAJOR_AXIS":"6925.377","ARG_OF_PERICENTER":"93.2012","CENTER_NAME":"EARTH","MEAN_ELEMENT_THEORY":"SGP4","ELEMENT_SET_NO":"999","MEAN_MOTION":"15.06390728","LAUNCH_DATE":"2021-04-29","MEAN_ANOMALY":"266.9200","TLE_LINE1":"1 48286U 21036L   21286.67016427 -.00000515  00000-0 -15654-4 0  9990","APOAPSIS":"548.589","REF_FRAME":"TEME","OBJECT_TYPE":"PAYLOAD","RA_OF_ASC_NODE":"100.2866","MEAN_MOTION_DDOT":"0.0000000000000","BSTAR":"-0.00001565400000","MEAN_MOTION_DOT":"-0.00000515","EPOCH":"2021-10-13T16:05:02.192928"},{"NORAD_CAT_ID":"48287","COUNTRY_CODE":"US","FILE":"3160758","RCS_SIZE":"LARGE","CLASSIFICATION_TYPE":"U","PERIOD":"95.591","PERIAPSIS":"545.952","ECCENTRICITY":"0.00017360","REV_AT_EPOCH":"2649","OBJECT_NAME":"STARLINK-2566","TIME_SYSTEM":"UTC","INCLINATION":"53.0539","EPHEMERIS_TYPE":"0","GP_ID":"187071233","TLE_LINE2":"2 48287  53.0539 101.1959 0001736  95.8213 264.2974 15.06419418 26491","SITE":"AFETR","MEAN_MOTION_DOT":"0.00002734","BSTAR":"0.00020225000000","EPOCH":"2021-10-13T11:13:06.517920","REF_FRAME":"TEME","APOAPSIS":"548.356","MEAN_MOTION_DDOT":"0.0000000000000","RA_OF_ASC_NODE":"101.1959","OBJECT_TYPE":"PAYLOAD","LAUNCH_DATE":"2021-04-29","TLE_LINE1":"1 48287U 21036M   21286.46743655  .00002734  00000-0  20225-3 0  9990","MEAN_ANOMALY":"264.2974","MEAN_MOTION":"15.06419418","ELEMENT_SET_NO":"999","MEAN_ELEMENT_THEORY":"SGP4","SEMIMAJOR_AXIS":"6925.289","ARG_OF_PERICENTER":"95.8213","CENTER_NAME":"EARTH","DECAY_DATE":null,"OBJECT_ID":"2021-036M"},{"OBJECT_ID":"2021-036N","DECAY_DATE":null,"ELEMENT_SET_NO":"999","MEAN_ELEMENT_THEORY":"SGP4","SEMIMAJOR_AXIS":"6925.307","CENTER_NAME":"EARTH","ARG_OF_PERICENTER":"95.0306","TLE_LINE1":"1 48288U 21036N   21286.79548273  .00002596  00000-0  19306-3 0  9990","MEAN_ANOMALY":"265.0863","LAUNCH_DATE":"2021-04-29","MEAN_MOTION":"15.06413563","EPOCH":"2021-10-13T19:05:29.707872","MEAN_MOTION_DOT":"0.00002596","BSTAR":"0.00019306000000","MEAN_MOTION_DDOT":"0.0000000000000","OBJECT_TYPE":"PAYLOAD","RA_OF_ASC_NODE":"99.7253","REF_FRAME":"TEME","APOAPSIS":"548.263","GP_ID":"187101302","SITE":"AFETR","TLE_LINE2":"2 48288  53.0549  99.7253 0001576  95.0306 265.0863 15.06413563 25961","EPHEMERIS_TYPE":"0","INCLINATION":"53.0549","PERIOD":"95.591","PERIAPSIS":"546.081","ECCENTRICITY":"0.00015760","OBJECT_NAME":"STARLINK-2562","TIME_SYSTEM":"UTC","REV_AT_EPOCH":"2596","COUNTRY_CODE":"US","FILE":"3161149","NORAD_CAT_ID":"48288","RCS_SIZE":"LARGE","CLASSIFICATION_TYPE":"U"},{"SITE":"AFETR","TLE_LINE2":"2 48289  53.0543 100.3381 0001945  98.5415 261.5794 15.06390183 25940","GP_ID":"187102054","EPHEMERIS_TYPE":"0","INCLINATION":"53.0543","OBJECT_NAME":"STARLINK-2545","TIME_SYSTEM":"UTC","REV_AT_EPOCH":"2594","ECCENTRICITY":"0.00019450","PERIAPSIS":"545.897","PERIOD":"95.593","CLASSIFICATION_TYPE":"U","RCS_SIZE":"LARGE","FILE":"3161149","COUNTRY_CODE":"US","NORAD_CAT_ID":"48289","OBJECT_ID":"2021-036P","DECAY_DATE":null,"SEMIMAJOR_AXIS":"6925.379","ARG_OF_PERICENTER":"98.5415","CENTER_NAME":"EARTH","MEAN_ELEMENT_THEORY":"SGP4","ELEMENT_SET_NO":"999","MEAN_MOTION":"15.06390183","TLE_LINE1":"1 48289U 21036P   21286.65910704 -.00000765  00000-0 -32427-4 0  9996","MEAN_ANOMALY":"261.5794","LAUNCH_DATE":"2021-04-29","OBJECT_TYPE":"PAYLOAD","RA_OF_ASC_NODE":"100.3381","MEAN_MOTION_DDOT":"0.0000000000000","APOAPSIS":"548.591","REF_FRAME":"TEME","EPOCH":"2021-10-13T15:49:06.848256","BSTAR":"-0.00003242700000","MEAN_MOTION_DOT":"-0.00000765"},{"EPHEMERIS_TYPE":"0","INCLINATION":"53.0546","SITE":"AFETR","TLE_LINE2":"2 48290  53.0546 100.3735 0001690  94.5127 265.6055 15.06392941 25940","GP_ID":"187102301","RCS_SIZE":"LARGE","CLASSIFICATION_TYPE":"U","COUNTRY_CODE":"US","FILE":"3161149","NORAD_CAT_ID":"48290","TIME_SYSTEM":"UTC","OBJECT_NAME":"STARLINK-2540","REV_AT_EPOCH":"2594","PERIOD":"95.593","ECCENTRICITY":"0.00016900","PERIAPSIS":"546.065","MEAN_ELEMENT_THEORY":"SGP4","SEMIMAJOR_AXIS":"6925.370","ARG_OF_PERICENTER":"94.5127","CENTER_NAME":"EARTH","ELEMENT_SET_NO":"999","OBJECT_ID":"2021-036Q","DECAY_DATE":null,"MEAN_MOTION_DDOT":"0.0000000000000","RA_OF_ASC_NODE":"100.3735","OBJECT_TYPE":"PAYLOAD","REF_FRAME":"TEME","APOAPSIS":"548.406","EPOCH":"2021-10-13T15:43:47.980416","MEAN_MOTION_DOT":"0.00001326","BSTAR":"0.00010795000000","MEAN_MOTION":"15.06392941","TLE_LINE1":"1 48290U 21036Q   21286.65541644  .00001326  00000-0  10795-3 0  9996","MEAN_ANOMALY":"265.6055","LAUNCH_DATE":"2021-04-29"},{"REF_FRAME":"TEME","APOAPSIS":"548.626","MEAN_MOTION_DDOT":"0.0000000000000","OBJECT_TYPE":"PAYLOAD","RA_OF_ASC_NODE":"99.4874","MEAN_MOTION_DOT":"-0.00000330","BSTAR":"-0.00000323540000","EPOCH":"2021-10-13T20:25:07.160448","MEAN_MOTION":"15.06395713","LAUNCH_DATE":"2021-04-29","MEAN_ANOMALY":"261.3689","TLE_LINE1":"1 48291U 21036R   21286.85077732 -.00000330  00000-0 -32354-5 0  9994","MEAN_ELEMENT_THEORY":"SGP4","ARG_OF_PERICENTER":"98.7529","SEMIMAJOR_AXIS":"6925.362","CENTER_NAME":"EARTH","ELEMENT_SET_NO":"999","DECAY_DATE":null,"OBJECT_ID":"2021-036R","RCS_SIZE":"MEDIUM","CLASSIFICATION_TYPE":"U","NORAD_CAT_ID":"48291","COUNTRY_CODE":"US","FILE":"3161149","REV_AT_EPOCH":"2597","TIME_SYSTEM":"UTC","OBJECT_NAME":"STARLINK-2555","PERIOD":"95.592","PERIAPSIS":"545.827","ECCENTRICITY":"0.00020210","INCLINATION":"53.0550","EPHEMERIS_TYPE":"0","TLE_LINE2":"2 48291  53.0550  99.4874 0002021  98.7529 261.3689 15.06395713 25978","SITE":"AFETR","GP_ID":"187100553"},{"MEAN_MOTION_DDOT":"0.0000000000000","RA_OF_ASC_NODE":"99.5035","OBJECT_TYPE":"PAYLOAD","REF_FRAME":"TEME","APOAPSIS":"548.452","EPOCH":"2021-10-13T20:18:26.402688","MEAN_MOTION_DOT":"-0.00000032","BSTAR":"0.00001678700000","MEAN_MOTION":"15.06400857","MEAN_ANOMALY":"266.6217","TLE_LINE1":"1 48292U 21036S   21286.84613892 -.00000032  00000-0  16787-4 0  9996","LAUNCH_DATE":"2021-04-29","MEAN_ELEMENT_THEORY":"SGP4","SEMIMAJOR_AXIS":"6925.346","ARG_OF_PERICENTER":"93.4977","CENTER_NAME":"EARTH","ELEMENT_SET_NO":"999","OBJECT_ID":"2021-036S","DECAY_DATE":null,"RCS_SIZE":"LARGE","CLASSIFICATION_TYPE":"U","COUNTRY_CODE":"US","FILE":"3161149","NORAD_CAT_ID":"48292","TIME_SYSTEM":"UTC","OBJECT_NAME":"STARLINK-2542","REV_AT_EPOCH":"2597","PERIOD":"95.592","ECCENTRICITY":"0.00017920","PERIAPSIS":"545.970","EPHEMERIS_TYPE":"0","INCLINATION":"53.0550","SITE":"AFETR","TLE_LINE2":"2 48292  53.0550  99.5035 0001792  93.4977 266.6217 15.06400857 25973","GP_ID":"187100803"},{"TIME_SYSTEM":"UTC","OBJECT_NAME":"STARLINK-2550","REV_AT_EPOCH":"2650","PERIOD":"95.593","PERIAPSIS":"546.018","ECCENTRICITY":"0.00017550","RCS_SIZE":"LARGE","CLASSIFICATION_TYPE":"U","COUNTRY_CODE":"US","FILE":"3160777","NORAD_CAT_ID":"48293","SITE":"AFETR","TLE_LINE2":"2 48293  53.0545 101.0035 0001755  84.1200 275.9989 15.06393384 26507","GP_ID":"187071300","EPHEMERIS_TYPE":"0","INCLINATION":"53.0545","MEAN_MOTION":"15.06393384","MEAN_ANOMALY":"275.9989","TLE_LINE1":"1 48293U 21036T   21286.51166758 -.00000771  00000-0 -32892-4 0  9991","LAUNCH_DATE":"2021-04-29","MEAN_MOTION_DDOT":"0.0000000000000","RA_OF_ASC_NODE":"101.0035","OBJECT_TYPE":"PAYLOAD","REF_FRAME":"TEME","APOAPSIS":"548.449","EPOCH":"2021-10-13T12:16:48.078912","MEAN_MOTION_DOT":"-0.00000771","BSTAR":"-0.00003289200000","OBJECT_ID":"2021-036T","DECAY_DATE":null,"MEAN_ELEMENT_THEORY":"SGP4","ARG_OF_PERICENTER":"84.1200","SEMIMAJOR_AXIS":"6925.369","CENTER_NAME":"EARTH","ELEMENT_SET_NO":"999"},{"OBJECT_ID":"2021-036U","DECAY_DATE":null,"ELEMENT_SET_NO":"999","MEAN_ELEMENT_THEORY":"SGP4","SEMIMAJOR_AXIS":"6925.366","CENTER_NAME":"EARTH","ARG_OF_PERICENTER":"85.9577","MEAN_ANOMALY":"274.1562","TLE_LINE1":"1 48294U 21036U   21286.44162806  .00001363  00000-0  11039-3 0  9999","LAUNCH_DATE":"2021-04-29","MEAN_MOTION":"15.06394402","EPOCH":"2021-10-13T10:35:56.664384","MEAN_MOTION_DOT":"0.00001363","BSTAR":"0.00011039000000","MEAN_MOTION_DDOT":"0.0000000000000","OBJECT_TYPE":"PAYLOAD","RA_OF_ASC_NODE":"101.3296","REF_FRAME":"TEME","APOAPSIS":"548.139","GP_ID":"187069664","SITE":"AFETR","TLE_LINE2":"2 48294  53.0570 101.3296 0001311  85.9577 274.1562 15.06394402 25916","EPHEMERIS_TYPE":"0","INCLINATION":"53.0570","PERIOD":"95.592","PERIAPSIS":"546.323","ECCENTRICITY":"0.00013110","OBJECT_NAME":"STARLINK-2533","TIME_SYSTEM":"UTC","REV_AT_EPOCH":"2591","COUNTRY_CODE":"US","FILE":"3160689","NORAD_CAT_ID":"48294","RCS_SIZE":"LARGE","CLASSIFICATION_TYPE":"U"}];
